[{"OBJECT_NAME":"ONEWEB-0664","OBJECT_ID":"2023-029AE","EPOCH":"2026-03-09T15:31:42.897792","MEAN_MOTION":13.20771965,"ECCENTRICITY":0.0001137,"INCLINATION":87.9162,"RA_OF_ASC_NODE":294.3685,"ARG_OF_PERICENTER":95.6788,"MEAN_ANOMALY":264.4474,"EPHEMERIS_TYPE":0,"CLASSIFICATION_TYPE":"U","NORAD_CAT_ID":55824,"ELEMENT_SET_NO":999,"REV_AT_EPOCH":14800,"BSTAR":-0.00082688,"MEAN_MOTION_DOT":-3.23e-6,"MEAN_MOTION_DDOT":0},{"OBJECT_NAME":"FENGYUN 1C DEB","OBJECT_ID":"1999-025DND","EPOCH":"2026-02-28T23:41:59.631072","MEAN_MOTION":13.37638949,"ECCENTRICITY":0.04851335,"INCLINATION":99.7823,"RA_OF_ASC_NODE":133.821,"ARG_OF_PERICENTER":23.2306,"MEAN_ANOMALY":338.9968,"EPHEMERIS_TYPE":0,"CLASSIFICATION_TYPE":"U","NORAD_CAT_ID":35173,"ELEMENT_SET_NO":999,"REV_AT_EPOCH":66875,"BSTAR":0.001454587,"MEAN_MOTION_DOT":1.467e-5,"MEAN_MOTION_DDOT":0}]
